ASTROCAST 0.1           
1 43798U 18099AS  26192.01319176  .00025811  00000+0  44144-3 0  9992
2 43798  97.4379 271.2794 0005621 139.5983 220.5687 15.51239777418129
ASTROCAST-0402          
1 55109U 23001DE  26190.49411991  .00006696  00000+0  24090-3 0  9996
2 55109  97.5576 284.0315 0006077 149.8448 210.3143 15.28934145147943
ASTROCAST-0401          
1 55110U 23001DF  26192.21002053  .00009028  00000+0  32816-3 0  9992
2 55110  97.5564 285.5833 0009510 119.8695 240.3491 15.28465623194872
ASTROCAST-0403          
1 55111U 23001DG  26192.23653343  .00014376  00000+0  46388-3 0  9990
2 55111  97.5620 286.9040 0004379 226.7887 133.2989 15.32243505148240
ASTROCAST-0404          
1 55112U 23001DH  26192.22890745  .00004807  00000+0  17457-3 0  9992
2 55112  97.5670 286.7222 0004896 261.7044  98.3641 15.28786012148206
