{"fetched_at":"2026-07-11T09:24:09.002Z","source":"https://celestrak.org/NORAD/elements/gp.php?NAME=ASTROCAST&FORMAT=JSON","constellation":"astrocast","records":[{"OBJECT_NAME":"ASTROCAST 0.1","OBJECT_ID":"2018-099AS","EPOCH":"2026-07-11T00:18:59.768064","CLASSIFICATION_TYPE":"U","MEAN_MOTION":15.51239777,"ECCENTRICITY":0.0005621,"INCLINATION":97.4379,"RA_OF_ASC_NODE":271.2794,"ARG_OF_PERICENTER":139.5983,"MEAN_ANOMALY":220.5687,"EPHEMERIS_TYPE":0,"NORAD_CAT_ID":43798,"ELEMENT_SET_NO":999,"REV_AT_EPOCH":41812,"BSTAR":0.00044144,"MEAN_MOTION_DOT":0.00025811,"MEAN_MOTION_DDOT":0},{"OBJECT_NAME":"ASTROCAST-0402","OBJECT_ID":"2023-001DE","EPOCH":"2026-07-09T11:51:31.960224","CLASSIFICATION_TYPE":"U","MEAN_MOTION":15.28934145,"ECCENTRICITY":0.00060776,"INCLINATION":97.5576,"RA_OF_ASC_NODE":284.0315,"ARG_OF_PERICENTER":149.8448,"MEAN_ANOMALY":210.3143,"EPHEMERIS_TYPE":0,"NORAD_CAT_ID":55109,"ELEMENT_SET_NO":999,"REV_AT_EPOCH":14794,"BSTAR":0.00024090056,"MEAN_MOTION_DOT":0.00006696,"MEAN_MOTION_DDOT":0},{"OBJECT_NAME":"ASTROCAST-0401","OBJECT_ID":"2023-001DF","EPOCH":"2026-07-11T05:02:25.773792","CLASSIFICATION_TYPE":"U","MEAN_MOTION":15.28465623,"ECCENTRICITY":0.000951,"INCLINATION":97.5564,"RA_OF_ASC_NODE":285.5833,"ARG_OF_PERICENTER":119.8695,"MEAN_ANOMALY":240.3491,"EPHEMERIS_TYPE":0,"NORAD_CAT_ID":55110,"ELEMENT_SET_NO":999,"REV_AT_EPOCH":19487,"BSTAR":0.00032816,"MEAN_MOTION_DOT":0.00009028,"MEAN_MOTION_DDOT":0},{"OBJECT_NAME":"ASTROCAST-0403","OBJECT_ID":"2023-001DG","EPOCH":"2026-07-11T05:40:36.488352","CLASSIFICATION_TYPE":"U","MEAN_MOTION":15.32243505,"ECCENTRICITY":0.0004379,"INCLINATION":97.562,"RA_OF_ASC_NODE":286.904,"ARG_OF_PERICENTER":226.7887,"MEAN_ANOMALY":133.2989,"EPHEMERIS_TYPE":0,"NORAD_CAT_ID":55111,"ELEMENT_SET_NO":999,"REV_AT_EPOCH":14824,"BSTAR":0.00046388,"MEAN_MOTION_DOT":0.00014376,"MEAN_MOTION_DDOT":0},{"OBJECT_NAME":"ASTROCAST-0404","OBJECT_ID":"2023-001DH","EPOCH":"2026-07-11T05:29:37.603680","CLASSIFICATION_TYPE":"U","MEAN_MOTION":15.28786012,"ECCENTRICITY":0.0004896,"INCLINATION":97.567,"RA_OF_ASC_NODE":286.7222,"ARG_OF_PERICENTER":261.7044,"MEAN_ANOMALY":98.3641,"EPHEMERIS_TYPE":0,"NORAD_CAT_ID":55112,"ELEMENT_SET_NO":999,"REV_AT_EPOCH":14820,"BSTAR":0.00017457,"MEAN_MOTION_DOT":0.00004807,"MEAN_MOTION_DDOT":0}]}
